     2              NAVIGATION DATA                         RINEX VERSION / TYPE
CCRINEXN V1.6.0 UX  CDDIS               26-FEB-16 15:33     PGM / RUN BY / DATE 
IGS BROADCAST EPHEMERIS FILE                                COMMENT             
    0.1397D-07  0.0000D+00 -0.5960D-07  0.5960D-07          ION ALPHA           
    0.1106D+06 -0.3277D+05 -0.2621D+06  0.1966D+06          ION BETA            
    0.931322574615D-09 0.000000000000D+00   503808     1885 DELTA-UTC: A0,A1,T,W
    17                                                      LEAP SECONDS        
                                                            END OF HEADER       
16 16  2 25  4  0  0.0-0.370568595827D-04 0.306954461848D-11 0.000000000000D+00
    0.150000000000D+02 0.425937500000D+02 0.362693679076D-08-0.239013950441D+01
    0.192224979401D-05 0.859558698721D-02 0.128410756588D-04 0.515372029495D+04
    0.360000000000D+06-0.260770320892D-07-0.256244906900D+01-0.184401869774D-06
    0.991066629926D+00 0.148750000000D+03 0.329650779598D+00-0.748888337062D-08
    0.197508227010D-09 0.000000000000D+00 0.188500000000D+04 0.000000000000D+00
    0.200000000000D+01 0.000000000000D+00-0.102445483208D-07 0.150000000000D+02
    0.352800000000D+06 0.400000000000D+01 0.000000000000D+00 0.000000000000D+00
17 16  2 25  4  0  0.0-0.201182905585D-03-0.454747350886D-12 0.000000000000D+00
    0.690000000000D+02 0.525625000000D+02 0.454018911710D-08 0.293213843303D+01
    0.273808836937D-05 0.109970985213D-01 0.413693487644D-05 0.515364239693D+04
    0.360000000000D+06 0.745058059692D-07-0.153961230273D+01-0.225380063057D-06
    0.975049447089D+00 0.302500000000D+03-0.194470129262D+01-0.807140763510D-08
    0.228580949885D-09 0.100000000000D+01 0.188500000000D+04 0.000000000000D+00
    0.200000000000D+01 0.000000000000D+00-0.107102096081D-07 0.690000000000D+02
    0.352818000000D+06 0.400000000000D+01 0.000000000000D+00 0.000000000000D+00
18 16  2 25  4  0  0.0 0.487104989588D-03 0.397903932026D-11 0.000000000000D+00
    0.610000000000D+02 0.100937500000D+02 0.493306262472D-08-0.179189264108D+01
    0.454485416412D-06 0.166998378700D-01 0.114571303129D-04 0.515366750526D+04
    0.360000000000D+06 0.428408384323D-06 0.480127481202D+00 0.726431608200D-07
    0.925412976056D+00 0.137812500000D+03-0.190983814808D+01-0.797818946647D-08
    0.267868300647D-10 0.100000000000D+01 0.188500000000D+04 0.000000000000D+00
    0.200000000000D+01 0.000000000000D+00-0.111758708954D-07 0.610000000000D+02
    0.352800000000D+06 0.400000000000D+01 0.000000000000D+00 0.000000000000D+00
19 16  2 25  4  0  0.0-0.524961855263D-03-0.113686837722D-12 0.000000000000D+00
    0.540000000000D+02 0.443437500000D+02 0.473948313278D-08-0.180438186969D+00
    0.246614217758D-05 0.112375371391D-01 0.423006713390D-05 0.515519256020D+04
    0.360000000000D+06 0.745058059692D-08-0.149056188400D+01 0.117346644402D-06
    0.972130227709D+00 0.303625000000D+03 0.684621376657D+00-0.846035240764D-08
    0.217509060125D-09 0.100000000000D+01 0.188500000000D+04 0.000000000000D+00
    0.200000000000D+01 0.000000000000D+00-0.153668224812D-07 0.540000000000D+02
    0.353562000000D+06 0.400000000000D+01 0.000000000000D+00 0.000000000000D+00
20 16  2 25  4  0  0.0 0.395149923861D-03 0.261479726760D-11 0.000000000000D+00
    0.400000000000D+02-0.132500000000D+02 0.497877881469D-08 0.217844282500D+01
   -0.799074769020D-06 0.484780024272D-02 0.114273279905D-04 0.515370550728D+04
    0.360000000000D+06 0.763684511185D-07 0.428197751492D+00-0.651925802231D-07
    0.926686484280D+00 0.141031250000D+03 0.133564784319D+01-0.817212611614D-08
   -0.135719938994D-10 0.100000000000D+01 0.188500000000D+04 0.000000000000D+00
    0.200000000000D+01 0.000000000000D+00-0.838190317154D-08 0.400000000000D+02
    0.352818000000D+06 0.400000000000D+01 0.000000000000D+00 0.000000000000D+00
21 16  2 25  4  0  0.0-0.512066297233D-03-0.181898940355D-11 0.000000000000D+00
    0.860000000000D+02-0.704687500000D+02 0.541843998549D-08-0.921694352406D+00
   -0.341981649399D-05 0.231974886265D-01 0.572763383388D-05 0.515366063690D+04
    0.360000000000D+06-0.275671482086D-06-0.561721232367D+00 0.413507223129D-06
    0.935881960154D+00 0.256156250000D+03-0.182473212810D+01-0.892537177756D-08
   -0.460376319379D-09 0.000000000000D+00 0.188500000000D+04 0.000000000000D+00
    0.200000000000D+01 0.000000000000D+00-0.116415321827D-07 0.860000000000D+02
    0.352800000000D+06 0.400000000000D+01 0.000000000000D+00 0.000000000000D+00
22 16  2 25  4  0  0.0 0.391718465835D-03-0.613908923697D-11 0.000000000000D+00
    0.240000000000D+02 0.296875000000D+01 0.489698969356D-08-0.310099566748D+01
   -0.167638063431D-07 0.768385059200D-02 0.126324594021D-04 0.515509347534D+04
    0.360000000000D+06 0.502914190292D-07 0.480887692434D+00-0.391155481338D-07
    0.923267233649D+00 0.113218750000D+03-0.201776345915D+01-0.802426281418D-08
    0.707172313708D-10 0.000000000000D+00 0.188500000000D+04 0.000000000000D+00
    0.200000000000D+01 0.000000000000D+00-0.176951289177D-07 0.240000000000D+02
    0.352800000000D+06 0.400000000000D+01 0.000000000000D+00 0.000000000000D+00
23 16  2 25  4  0  0.0-0.161708332598D-03-0.181898940355D-11 0.000000000000D+00
    0.940000000000D+02 0.599687500000D+02 0.517628704170D-08 0.165484690990D+01
    0.314600765705D-05 0.105053909356D-01 0.530667603016D-05 0.515371810150D+04
    0.360000000000D+06-0.137835741043D-06 0.155642416608D+01 0.912696123123D-07
    0.946137582039D+00 0.271593750000D+03-0.260967838148D+01-0.857821445992D-08
    0.301441127661D-09 0.000000000000D+00 0.188500000000D+04 0.000000000000D+00
    0.280000000000D+01 0.000000000000D+00-0.200234353542D-07 0.940000000000D+02
    0.357870000000D+06 0.400000000000D+01 0.000000000000D+00 0.000000000000D+00
24 16  2 25  4  0  0.0-0.129449181259D-04-0.682121026330D-12 0.000000000000D+00
    0.107000000000D+03-0.551875000000D+02 0.498985070445D-08 0.103451967978D+01
   -0.297091901302D-05 0.430092506576D-02 0.596791505814D-05 0.515363126183D+04
    0.360000000000D+06 0.223517417908D-07 0.258291407871D+01 0.260770320892D-07
    0.950465863633D+00 0.259375000000D+03 0.376012780613D+00-0.841820779500D-08
   -0.392873507616D-09 0.100000000000D+01 0.188500000000D+04 0.000000000000D+00
    0.200000000000D+01 0.000000000000D+00 0.232830643654D-08 0.107000000000D+03
    0.355956000000D+06 0.400000000000D+01 0.000000000000D+00 0.000000000000D+00
25 16  2 25  4  0  0.0-0.123080797493D-03-0.682121026330D-11 0.000000000000D+00
    0.370000000000D+02 0.236875000000D+02 0.398730894457D-08-0.877670856663D+00
    0.126846134663D-05 0.520119792782D-02 0.113844871521D-04 0.515355563736D+04
    0.360000000000D+06 0.633299350738D-07-0.263099056558D+01 0.800937414169D-07
    0.978877293666D+00 0.172187500000D+03 0.700874180006D+00-0.773996525776D-08
    0.782175437889D-10 0.000000000000D+00 0.188500000000D+04 0.000000000000D+00
    0.200000000000D+01 0.000000000000D+00 0.558793544769D-08 0.370000000000D+02
    0.352800000000D+06 0.400000000000D+01 0.000000000000D+00 0.000000000000D+00
26 16  2 25  4  0  0.0-0.268307514489D-03-0.153477230924D-10 0.000000000000D+00
    0.430000000000D+02 0.263125000000D+02 0.434696678290D-08-0.150424755724D+01
    0.114180147648D-05 0.883083557710D-03 0.120140612125D-04 0.515371826553D+04
    0.360000000000D+06 0.167638063431D-07-0.263833700224D+01-0.167638063431D-07
    0.960885557632D+00 0.147781250000D+03-0.704654693868D-01-0.788854287519D-08
    0.885751180806D-10 0.000000000000D+00 0.188500000000D+04 0.000000000000D+00
    0.200000000000D+01 0.000000000000D+00 0.698491930962D-08 0.430000000000D+02
    0.352800000000D+06 0.400000000000D+01 0.000000000000D+00 0.000000000000D+00
27 16  2 25  4  0  0.0 0.660601072013D-04 0.363797880709D-11 0.000000000000D+00
    0.110000000000D+02 0.648125000000D+02 0.470341020163D-08 0.297877618678D+01
    0.336952507496D-05 0.325322174467D-02 0.446476042271D-05 0.515363004494D+04
    0.360000000000D+06-0.335276126862D-07-0.158900546855D+01-0.298023223877D-07
    0.969998375709D+00 0.298781250000D+03 0.203884211179D+00-0.824105755884D-08
    0.346800159904D-09 0.000000000000D+00 0.188500000000D+04 0.000000000000D+00
    0.200000000000D+01 0.000000000000D+00 0.139698386192D-08 0.110000000000D+02
    0.352950000000D+06 0.400000000000D+01 0.000000000000D+00 0.000000000000D+00
28 16  2 25  4  0  0.0 0.504804775119D-03 0.261479726760D-11 0.000000000000D+00
    0.250000000000D+02 0.351875000000D+02 0.356443418728D-08-0.259676025015D+01
    0.181049108505D-05 0.198926206212D-01 0.123269855976D-04 0.515363229942D+04
    0.360000000000D+06 0.249594449997D-06-0.255739719009D+01 0.141561031342D-06
    0.989746432672D+00 0.150218750000D+03-0.162128845276D+01-0.722208654318D-08
    0.256439253153D-09 0.100000000000D+01 0.188500000000D+04 0.000000000000D+00
    0.200000000000D+01 0.000000000000D+00-0.107102096081D-07 0.250000000000D+02
    0.352818000000D+06 0.400000000000D+01 0.000000000000D+00 0.000000000000D+00
29 16  2 25  4  0  0.0 0.654864590615D-03 0.682121026330D-12 0.000000000000D+00
    0.800000000000D+02 0.500937500000D+02 0.462519265784D-08-0.796599455028D+00
    0.274553894997D-05 0.105598033406D-02 0.424310564995D-05 0.515360651207D+04
    0.360000000000D+06 0.353902578354D-07-0.152997513678D+01 0.242143869400D-07
    0.975985840471D+00 0.307781250000D+03-0.541815970227D+00-0.828070206734D-08
    0.273582824394D-09 0.000000000000D+00 0.188500000000D+04 0.000000000000D+00
    0.280000000000D+01 0.000000000000D+00-0.102445483208D-07 0.800000000000D+02
    0.352800000000D+06 0.400000000000D+01 0.000000000000D+00 0.000000000000D+00
